{"type": "FeatureCollection", "features": [ {"type": "Feature", "properties": {"norad_id": 66455, "name": "ATLAS 5 CENTAUR R/B", "group": "last-30-days", "lat": -5.429648963501365, "lon": -130.0698451701443, "alt_km": 18856.62661929862, "timestamp": "2025-12-11T18:59:44.809295+00:00", "meta": {"OBJECT_NAME": "ATLAS 5 CENTAUR R/B", "OBJECT_ID": "2025-261B", "EPOCH": "2025-12-11T00:49:11.265024", "MEAN_MOTION": 2.28259787, "ECCENTRICITY": 0.23294877, "INCLINATION": 6.1479, "RA_OF_ASC_NODE": 291.787, "ARG_OF_PERICENTER": 186.1415, "MEAN_ANOMALY": 183.1915, "EPHEMERIS_TYPE": 0, "CLASSIFICATION_TYPE": "U", "NORAD_CAT_ID": 66455, "ELEMENT_SET_NO": 999, "REV_AT_EPOCH": 61, "BSTAR": 0, "MEAN_MOTION_DOT": -7.9e-07, "MEAN_MOTION_DDOT": 0}, "tle": {"line1": "1 66455U 25261B   25345.03415816 -.00000079  00000+0  00000+0 0  9994", "line2": "2 66455   6.1479 291.7870 2329487 186.1415 183.1915  2.28259787   615"}}, "geometry": {"type": "Point", "coordinates": [-130.0698451701443, -5.429648963501365]}}, {"type": "Feature", "properties": {"norad_id": 66456, "name": "STARLINK-35643", "group": "last-30-days", "lat": -41.093012141962824, "lon": 7.6964759086333965, "alt_km": 446.6249287934288, "timestamp": "2025-12-11T18:59:44.809307+00:00", "meta": {"OBJECT_NAME": "STARLINK-35643", "OBJECT_ID": "2025-262A", "EPOCH": "2025-12-11T06:00:02.999808", "MEAN_MOTION": 15.40674537, "ECCENTRICITY": 0.0001351, "INCLINATION": 42.9999, "RA_OF_ASC_NODE": 80.1951, "ARG_OF_PERICENTER": 257.7994, "MEAN_ANOMALY": 260.9129, "EPHEMERIS_TYPE": 0, "CLASSIFICATION_TYPE": "U", "NORAD_CAT_ID": 66456, "ELEMENT_SET_NO": 999, "REV_AT_EPOCH": 539, "BSTAR": -0.00040260771, "MEAN_MOTION_DOT": -0.00017069, "MEAN_MOTION_DDOT": 0}, "tle": {"line1": "1 66456U 25262A   25345.25003472 -.00017069  00000+0 -40261-3 0  9996", "line2": "2 66456  42.9999  80.1951 0001351 257.7994 260.9129 15.40674537  5396"}}, "geometry": {"type": "Point", "coordinates": [7.6964759086333965, -41.093012141962824]}}, {"type": "Feature", "properties": {"norad_id": 66457, "name": "STARLINK-35466", "group": "last-30-days", "lat": -31.33522713093979, "lon": 36.2163622347607, "alt_km": 446.220150025164, "timestamp": "2025-12-11T18:59:44.809318+00:00", "meta": {"OBJECT_NAME": "STARLINK-35466", "OBJECT_ID": "2025-262B", "EPOCH": "2025-12-11T06:00:02.999808", "MEAN_MOTION": 15.40644341, "ECCENTRICITY": 0.00010919, "INCLINATION": 42.9998, "RA_OF_ASC_NODE": 80.1343, "ARG_OF_PERICENTER": 262.8421, "MEAN_ANOMALY": 280.7539, "EPHEMERIS_TYPE": 0, "CLASSIFICATION_TYPE": "U", "NORAD_CAT_ID": 66457, "ELEMENT_SET_NO": 999, "REV_AT_EPOCH": 539, "BSTAR": 0.0018815368, "MEAN_MOTION_DOT": 0.00078964, "MEAN_MOTION_DDOT": 0}, "tle": {"line1": "1 66457U 25262B   25345.25003472  .00078964  00000+0  18815-2 0  9995", "line2": "2 66457  42.9998  80.1343 0001091 262.8421 280.7539 15.40644341  5399"}}, "geometry": {"type": "Point", "coordinates": [36.2163622347607, -31.33522713093979]}}, {"type": "Feature", "properties": {"norad_id": 66458, "name": "STARLINK-35684", "group": "last-30-days", "lat": -37.084362169265205, "lon": 22.83536794012223, "alt_km": 446.6234715562532, "timestamp": "2025-12-11T18:59:44.809329+00:00", "meta": {"OBJECT_NAME": "STARLINK-35684", "OBJECT_ID": "2025-262C", "EPOCH": "2025-12-11T06:00:02.999808", "MEAN_MOTION": 15.40777264, "ECCENTRICITY": 0.0001075, "INCLINATION": 42.9999, "RA_OF_ASC_NODE": 80.1642, "ARG_OF_PERICENTER": 276.2607, "MEAN_ANOMALY": 254.809, "EPHEMERIS_TYPE": 0, "CLASSIFICATION_TYPE": "U", "NORAD_CAT_ID": 66458, "ELEMENT_SET_NO": 999, "REV_AT_EPOCH": 539, "BSTAR": -0.0030984135, "MEAN_MOTION_DOT": -0.0012791, "MEAN_MOTION_DDOT": 0}, "tle": {"line1": "1 66458U 25262C   25345.25003472 -.00127910  00000+0 -30984-2 0  9995", "line2": "2 66458  42.9999  80.1642 0001075 276.2607 254.8090 15.40777264  5395"}}, "geometry": {"type": "Point", "coordinates": [22.83536794012223, -37.084362169265205]}}, {"type": "Feature", "properties": {"norad_id": 66459, "name": "STARLINK-35449", "group": "last-30-days", "lat": -24.407142774228426, "lon": 47.84177716867385, "alt_km": 446.09254588671774, "timestamp": "2025-12-11T18:59:44.809339+00:00", "meta": {"OBJECT_NAME": "STARLINK-35449", "OBJECT_ID": "2025-262D", "EPOCH": "2025-12-11T06:00:02.999808", "MEAN_MOTION": 15.40708879, "ECCENTRICITY": 0.00013868, "INCLINATION": 43, "RA_OF_ASC_NODE": 80.1032, "ARG_OF_PERICENTER": 256.681, "MEAN_ANOMALY": 299.3502, "EPHEMERIS_TYPE": 0, "CLASSIFICATION_TYPE": "U", "NORAD_CAT_ID": 66459, "ELEMENT_SET_NO": 999, "REV_AT_EPOCH": 539, "BSTAR": -0.0015273312, "MEAN_MOTION_DOT": -0.00063593, "MEAN_MOTION_DDOT": 0}, "tle": {"line1": "1 66459U 25262D   25345.25003472 -.00063593  00000+0 -15273-2 0  9996", "line2": "2 66459  43.0000  80.1032 0001386 256.6810 299.3502 15.40708879  5395"}}, "geometry": {"type": "Point", "coordinates": [47.84177716867385, -24.407142774228426]}}, {"type": "Feature", "properties": {"norad_id": 66460, "name": "STARLINK-35424", "group": "last-30-days", "lat": -16.68043275256952, "lon": 58.195563306105065, "alt_km": 445.4537028060122, "timestamp": "2025-12-11T18:59:44.809350+00:00", "meta": {"OBJECT_NAME": "STARLINK-35424", "OBJECT_ID": "2025-262E", "EPOCH": "2025-12-11T06:00:02.999808", "MEAN_MOTION": 15.40676642, "ECCENTRICITY": 0.00014287, "INCLINATION": 43.0001, "RA_OF_ASC_NODE": 80.0733, "ARG_OF_PERICENTER": 260.5798, "MEAN_ANOMALY": 307.8662, "EPHEMERIS_TYPE": 0, "CLASSIFICATION_TYPE": "U", "NORAD_CAT_ID": 66460, "ELEMENT_SET_NO": 999, "REV_AT_EPOCH": 539, "BSTAR": -3.2430047e-05, "MEAN_MOTION_DOT": -1.657e-05, "MEAN_MOTION_DDOT": 0}, "tle": {"line1": "1 66460U 25262E   25345.25003472 -.00001657  00000+0 -32430-4 0  9997", "line2": "2 66460  43.0001  80.0733 0001428 260.5798 307.8662 15.40676642  5395"}}, "geometry": {"type": "Point", "coordinates": [58.195563306105065, -16.68043275256952]}}, {"type": "Feature", "properties": {"norad_id": 66461, "name": "STARLINK-35132", "group": "last-30-days", "lat": -8.458785198002342, "lon": 67.73855545231524, "alt_km": 444.6506633803492, "timestamp": "2025-12-11T18:59:44.809365+00:00", "meta": {"OBJECT_NAME": "STARLINK-35132", "OBJECT_ID": "2025-262F", "EPOCH": "2025-12-11T06:00:02.999808", "MEAN_MOTION": 15.40679736, "ECCENTRICITY": 0.00014986, "INCLINATION": 43.0001, "RA_OF_ASC_NODE": 80.0425, "ARG_OF_PERICENTER": 270.6507, "MEAN_ANOMALY": 310.243, "EPHEMERIS_TYPE": 0, "CLASSIFICATION_TYPE": "U", "NORAD_CAT_ID": 66461, "ELEMENT_SET_NO": 999, "REV_AT_EPOCH": 539, "BSTAR": -0.00027843354, "MEAN_MOTION_DOT": -0.00011908, "MEAN_MOTION_DDOT": 0}, "tle": {"line1": "1 66461U 25262F   25345.25003472 -.00011908  00000+0 -27843-3 0  9999", "line2": "2 66461  43.0001  80.0425 0001498 270.6507 310.2430 15.40679736  5399"}}, "geometry": {"type": "Point", "coordinates": [67.73855545231524, -8.458785198002342]}}, {"type": "Feature", "properties": {"norad_id": 66462, "name": "STARLINK-35499", "group": "last-30-days", "lat": 0.015310946388269155, "lon": 76.90725837802432, "alt_km": 444.67398303322807, "timestamp": "2025-12-11T18:59:44.809376+00:00", "meta": {"OBJECT_NAME": "STARLINK-35499", "OBJECT_ID": "2025-262G", "EPOCH": "2025-12-11T06:00:02.999808", "MEAN_MOTION": 15.40998693, "ECCENTRICITY": 0.00014321, "INCLINATION": 43.0003, "RA_OF_ASC_NODE": 80.0117, "ARG_OF_PERICENTER": 268.782, "MEAN_ANOMALY": 324.5572, "EPHEMERIS_TYPE": 0, "CLASSIFICATION_TYPE": "U", "NORAD_CAT_ID": 66462, "ELEMENT_SET_NO": 999, "REV_AT_EPOCH": 539, "BSTAR": -0.013520009, "MEAN_MOTION_DOT": -0.00532615, "MEAN_MOTION_DDOT": 0}, "tle": {"line1": "1 66462U 25262G   25345.25003472 -.00532615  00000+0 -13520-1 0  9998", "line2": "2 66462  43.0003  80.0117 0001432 268.7820 324.5572 15.40998693  5395"}}, "geometry": {"type": "Point", "coordinates": [76.90725837802432, 0.015310946388269155]}}, {"type": "Feature", "properties": {"norad_id": 66463, "name": "STARLINK-35463", "group": "last-30-days", "lat": 16.620293794285477, "lon": 95.5126913659119, "alt_km": 442.4797519763679, "timestamp": "2025-12-11T18:59:44.809386+00:00", "meta": {"OBJECT_NAME": "STARLINK-35463", "OBJECT_ID": "2025-262H", "EPOCH": "2025-12-11T06:00:02.999808", "MEAN_MOTION": 15.40512664, "ECCENTRICITY": 0.00016649, "INCLINATION": 43.0008, "RA_OF_ASC_NODE": 79.9508, "ARG_OF_PERICENTER": 238.1125, "MEAN_ANOMALY": 20.2304, "EPHEMERIS_TYPE": 0, "CLASSIFICATION_TYPE": "U", "NORAD_CAT_ID": 66463, "ELEMENT_SET_NO": 999, "REV_AT_EPOCH": 539, "BSTAR": 0.0029015702, "MEAN_MOTION_DOT": 0.00122099, "MEAN_MOTION_DDOT": 0}, "tle": {"line1": "1 66463U 25262H   25345.25003472  .00122099  00000+0  29016-2 0  9996", "line2": "2 66463  43.0008  79.9508 0001664 238.1125  20.2304 15.40512664  5391"}}, "geometry": {"type": "Point", "coordinates": [95.5126913659119, 16.620293794285477]}}, {"type": "Feature", "properties": {"norad_id": 66464, "name": "STARLINK-35435", "group": "last-30-days", "lat": 8.44807262988944, "lon": 86.03230453690858, "alt_km": 442.83973805552887, "timestamp": "2025-12-11T18:59:44.809397+00:00", "meta": {"OBJECT_NAME": "STARLINK-35435", "OBJECT_ID": "2025-262J", "EPOCH": "2025-12-11T06:00:02.999808", "MEAN_MOTION": 15.40681288, "ECCENTRICITY": 0.0001742, "INCLINATION": 43.0005, "RA_OF_ASC_NODE": 79.982, "ARG_OF_PERICENTER": 273.4765, "MEAN_ANOMALY": 332.3087, "EPHEMERIS_TYPE": 0, "CLASSIFICATION_TYPE": "U", "NORAD_CAT_ID": 66464, "ELEMENT_SET_NO": 999, "REV_AT_EPOCH": 539, "BSTAR": -0.00017323154, "MEAN_MOTION_DOT": -7.528e-05, "MEAN_MOTION_DDOT": 0}, "tle": {"line1": "1 66464U 25262J   25345.25003472 -.00007528  00000+0 -17323-3 0  9997", "line2": "2 66464  43.0005  79.9820 0001742 273.4765 332.3087 15.40681288  5399"}}, "geometry": {"type": "Point", "coordinates": [86.03230453690858, 8.44807262988944]}}]}